HULIANWANG DIGUI-107    
1 66917U 25285C   25361.50715343  .00000147  00000+0  19435-3 0  9992
2 66917  49.9996  57.0932 0005409 335.8370  24.2279 14.01972380  2980
HULIANWANG DIGUI-108    
1 66918U 25285D   25361.50650655 -.00000067  00000+0  54473-4 0  9991
2 66918  50.0050  57.1032 0004556 332.9216  27.1450 14.02080542  2980
HULIANWANG DIGUI-109    
1 66919U 25285E   25361.50445712  .00000344  00000+0  32095-3 0  9990
2 66919  50.0072  57.0984 0006013 344.0294  16.0420 14.02265731  2989
HULIANWANG DIGUI-110    
1 66920U 25285F   25361.50365617  .00000036  00000+0  12120-3 0  9992
2 66920  50.0090  57.1070 0003197 344.0544  16.0259 14.02447262  2987
HULIANWANG DIGUI-111    
1 66921U 25285G   25361.50278346 -.00000123  00000+0  18388-4 0  9996
2 66921  50.0128  57.0997 0004779 347.7308  12.3479 14.02553861  2988
HULIANWANG DIGUI-112    
1 66922U 25285H   25361.50152777  .00000113  00000+0  17002-3 0  9995
2 66922  50.0101  57.0843 0004915 358.8707   1.2185 14.02693799  2984
HULIANWANG DIGUI-113    
1 66923U 25285J   25361.42890462 -.00000154  00000+0 -16332-5 0  9991
2 66923  50.0110  57.3693 0003193 344.4808  15.5998 14.02922953  2977
CZ-8A R/B               
1 66924U 25285K   25361.40106624  .00000071  00000+0  83486-4 0  9999
2 66924  50.0086  53.7460 0119224 158.4223 202.1776 14.30507714  3029
STARLINK-35945          
1 66925U 25286A   25361.50002315 -.02037034  00000+0 -36123-1 0  9990
2 66925  53.1593 337.1185 0001334  67.2725  53.8722 15.52887000  4360
STARLINK-35942          
1 66926U 25286B   25361.50002315 -.02003696  00000+0 -38082-1 0  9994
2 66926  53.1592 337.1787 0001213  56.3789  35.1096 15.50920084  4368
STARLINK-35943          
1 66927U 25286C   25361.50002315 -.02041151  00000+0 -38844-1 0  9999
2 66927  53.1594 337.1742 0001168  66.6943  26.7051 15.50946930  4362
STARLINK-35944          
1 66928U 25286D   25361.50002315 -.02042703  00000+0 -38874-1 0  9997
2 66928  53.1593 337.1818 0001216  65.7424  23.8217 15.50948607  4369
