CCSDS_OMM_VERS = 2.0
CREATION_DATE  = 
ORIGINATOR     = 

OBJECT_NAME    = HULIANWANG DIGUI-107
OBJECT_ID      = 2025-285C
CENTER_NAME    = EARTH
REF_FRAME      = TEME
TIME_SYSTEM    = UTC
MEAN_ELEMENT_THEORY = SGP/SGP4

EPOCH          = 2025-12-27T12:10:18.056352
MEAN_MOTION    = 14.01972380
ECCENTRICITY   = .0005409
INCLINATION    = 49.9996
RA_OF_ASC_NODE = 57.0932
ARG_OF_PERICENTER = 335.8370
MEAN_ANOMALY   = 24.2279

EPHEMERIS_TYPE = 0
CLASSIFICATION_TYPE = U
NORAD_CAT_ID   = 66917
ELEMENT_SET_NO = 999
REV_AT_EPOCH   = 298
BSTAR          = .19435E-3
MEAN_MOTION_DOT = .147E-5
MEAN_MOTION_DDOT = 0

CCSDS_OMM_VERS = 2.0
CREATION_DATE  = 
ORIGINATOR     = 

OBJECT_NAME    = HULIANWANG DIGUI-108
OBJECT_ID      = 2025-285D
CENTER_NAME    = EARTH
REF_FRAME      = TEME
TIME_SYSTEM    = UTC
MEAN_ELEMENT_THEORY = SGP/SGP4

EPOCH          = 2025-12-27T12:09:22.165920
MEAN_MOTION    = 14.02080542
ECCENTRICITY   = .0004556
INCLINATION    = 50.0050
RA_OF_ASC_NODE = 57.1032
ARG_OF_PERICENTER = 332.9216
MEAN_ANOMALY   = 27.1450

EPHEMERIS_TYPE = 0
CLASSIFICATION_TYPE = U
NORAD_CAT_ID   = 66918
ELEMENT_SET_NO = 999
REV_AT_EPOCH   = 298
BSTAR          = .54473E-4
MEAN_MOTION_DOT = -.67E-6
MEAN_MOTION_DDOT = 0

CCSDS_OMM_VERS = 2.0
CREATION_DATE  = 
ORIGINATOR     = 

OBJECT_NAME    = HULIANWANG DIGUI-109
OBJECT_ID      = 2025-285E
CENTER_NAME    = EARTH
REF_FRAME      = TEME
TIME_SYSTEM    = UTC
MEAN_ELEMENT_THEORY = SGP/SGP4

EPOCH          = 2025-12-27T12:06:25.095168
MEAN_MOTION    = 14.02265731
ECCENTRICITY   = .0006013
INCLINATION    = 50.0072
RA_OF_ASC_NODE = 57.0984
ARG_OF_PERICENTER = 344.0294
MEAN_ANOMALY   = 16.0420

EPHEMERIS_TYPE = 0
CLASSIFICATION_TYPE = U
NORAD_CAT_ID   = 66919
ELEMENT_SET_NO = 999
REV_AT_EPOCH   = 298
BSTAR          = .32095E-3
MEAN_MOTION_DOT = .344E-5
MEAN_MOTION_DDOT = 0

CCSDS_OMM_VERS = 2.0
CREATION_DATE  = 
ORIGINATOR     = 

OBJECT_NAME    = HULIANWANG DIGUI-110
OBJECT_ID      = 2025-285F
CENTER_NAME    = EARTH
REF_FRAME      = TEME
TIME_SYSTEM    = UTC
MEAN_ELEMENT_THEORY = SGP/SGP4

EPOCH          = 2025-12-27T12:05:15.893088
MEAN_MOTION    = 14.02447262
ECCENTRICITY   = .0003197
INCLINATION    = 50.0090
RA_OF_ASC_NODE = 57.1070
ARG_OF_PERICENTER = 344.0544
MEAN_ANOMALY   = 16.0259

EPHEMERIS_TYPE = 0
CLASSIFICATION_TYPE = U
NORAD_CAT_ID   = 66920
ELEMENT_SET_NO = 999
REV_AT_EPOCH   = 298
BSTAR          = .1212E-3
MEAN_MOTION_DOT = .36E-6
MEAN_MOTION_DDOT = 0

CCSDS_OMM_VERS = 2.0
CREATION_DATE  = 
ORIGINATOR     = 

OBJECT_NAME    = HULIANWANG DIGUI-111
OBJECT_ID      = 2025-285G
CENTER_NAME    = EARTH
REF_FRAME      = TEME
TIME_SYSTEM    = UTC
MEAN_ELEMENT_THEORY = SGP/SGP4

EPOCH          = 2025-12-27T12:04:00.490944
MEAN_MOTION    = 14.02553861
ECCENTRICITY   = .0004779
INCLINATION    = 50.0128
RA_OF_ASC_NODE = 57.0997
ARG_OF_PERICENTER = 347.7308
MEAN_ANOMALY   = 12.3479

EPHEMERIS_TYPE = 0
CLASSIFICATION_TYPE = U
NORAD_CAT_ID   = 66921
ELEMENT_SET_NO = 999
REV_AT_EPOCH   = 298
BSTAR          = .18388E-4
MEAN_MOTION_DOT = -.123E-5
MEAN_MOTION_DDOT = 0

CCSDS_OMM_VERS = 2.0
CREATION_DATE  = 
ORIGINATOR     = 

OBJECT_NAME    = HULIANWANG DIGUI-112
OBJECT_ID      = 2025-285H
CENTER_NAME    = EARTH
REF_FRAME      = TEME
TIME_SYSTEM    = UTC
MEAN_ELEMENT_THEORY = SGP/SGP4

EPOCH          = 2025-12-27T12:02:11.999328
MEAN_MOTION    = 14.02693799
ECCENTRICITY   = .0004915
INCLINATION    = 50.0101
RA_OF_ASC_NODE = 57.0843
ARG_OF_PERICENTER = 358.8707
MEAN_ANOMALY   = 1.2185

EPHEMERIS_TYPE = 0
CLASSIFICATION_TYPE = U
NORAD_CAT_ID   = 66922
ELEMENT_SET_NO = 999
REV_AT_EPOCH   = 298
BSTAR          = .17002E-3
MEAN_MOTION_DOT = .113E-5
MEAN_MOTION_DDOT = 0

CCSDS_OMM_VERS = 2.0
CREATION_DATE  = 
ORIGINATOR     = 

OBJECT_NAME    = HULIANWANG DIGUI-113
OBJECT_ID      = 2025-285J
CENTER_NAME    = EARTH
REF_FRAME      = TEME
TIME_SYSTEM    = UTC
MEAN_ELEMENT_THEORY = SGP/SGP4

EPOCH          = 2025-12-27T10:17:37.359168
MEAN_MOTION    = 14.02922953
ECCENTRICITY   = .0003193
INCLINATION    = 50.0110
RA_OF_ASC_NODE = 57.3693
ARG_OF_PERICENTER = 344.4808
MEAN_ANOMALY   = 15.5998

EPHEMERIS_TYPE = 0
CLASSIFICATION_TYPE = U
NORAD_CAT_ID   = 66923
ELEMENT_SET_NO = 999
REV_AT_EPOCH   = 297
BSTAR          = -.16332E-5
MEAN_MOTION_DOT = -.154E-5
MEAN_MOTION_DDOT = 0

CCSDS_OMM_VERS = 2.0
CREATION_DATE  = 
ORIGINATOR     = 

OBJECT_NAME    = CZ-8A R/B
OBJECT_ID      = 2025-285K
CENTER_NAME    = EARTH
REF_FRAME      = TEME
TIME_SYSTEM    = UTC
MEAN_ELEMENT_THEORY = SGP/SGP4

EPOCH          = 2025-12-27T09:37:32.123136
MEAN_MOTION    = 14.30507714
ECCENTRICITY   = .0119224
INCLINATION    = 50.0086
RA_OF_ASC_NODE = 53.7460
ARG_OF_PERICENTER = 158.4223
MEAN_ANOMALY   = 202.1776

EPHEMERIS_TYPE = 0
CLASSIFICATION_TYPE = U
NORAD_CAT_ID   = 66924
ELEMENT_SET_NO = 999
REV_AT_EPOCH   = 302
BSTAR          = .83486E-4
MEAN_MOTION_DOT = .71E-6
MEAN_MOTION_DDOT = 0

CCSDS_OMM_VERS = 2.0
CREATION_DATE  = 
ORIGINATOR     = 

OBJECT_NAME    = STARLINK-35945
OBJECT_ID      = 2025-286A
CENTER_NAME    = EARTH
REF_FRAME      = TEME
TIME_SYSTEM    = UTC
MEAN_ELEMENT_THEORY = SGP/SGP4

EPOCH          = 2025-12-27T12:00:02.000160
MEAN_MOTION    = 15.52887000
ECCENTRICITY   = .0001334
INCLINATION    = 53.1593
RA_OF_ASC_NODE = 337.1185
ARG_OF_PERICENTER = 67.2725
MEAN_ANOMALY   = 53.8722

EPHEMERIS_TYPE = 0
CLASSIFICATION_TYPE = U
NORAD_CAT_ID   = 66925
ELEMENT_SET_NO = 999
REV_AT_EPOCH   = 436
BSTAR          = -.36123E-1
MEAN_MOTION_DOT = -.2037034E-1
MEAN_MOTION_DDOT = 0

CCSDS_OMM_VERS = 2.0
CREATION_DATE  = 
ORIGINATOR     = 

OBJECT_NAME    = STARLINK-35942
OBJECT_ID      = 2025-286B
CENTER_NAME    = EARTH
REF_FRAME      = TEME
TIME_SYSTEM    = UTC
MEAN_ELEMENT_THEORY = SGP/SGP4

EPOCH          = 2025-12-27T12:00:02.000160
MEAN_MOTION    = 15.50920084
ECCENTRICITY   = .0001213
INCLINATION    = 53.1592
RA_OF_ASC_NODE = 337.1787
ARG_OF_PERICENTER = 56.3789
MEAN_ANOMALY   = 35.1096

EPHEMERIS_TYPE = 0
CLASSIFICATION_TYPE = U
NORAD_CAT_ID   = 66926
ELEMENT_SET_NO = 999
REV_AT_EPOCH   = 436
BSTAR          = -.38082E-1
MEAN_MOTION_DOT = -.2003696E-1
MEAN_MOTION_DDOT = 0

CCSDS_OMM_VERS = 2.0
CREATION_DATE  = 
ORIGINATOR     = 

OBJECT_NAME    = STARLINK-35943
OBJECT_ID      = 2025-286C
CENTER_NAME    = EARTH
REF_FRAME      = TEME
TIME_SYSTEM    = UTC
MEAN_ELEMENT_THEORY = SGP/SGP4

EPOCH          = 2025-12-27T12:00:02.000160
MEAN_MOTION    = 15.50946930
ECCENTRICITY   = .0001168
INCLINATION    = 53.1594
RA_OF_ASC_NODE = 337.1742
ARG_OF_PERICENTER = 66.6943
MEAN_ANOMALY   = 26.7051

EPHEMERIS_TYPE = 0
CLASSIFICATION_TYPE = U
NORAD_CAT_ID   = 66927
ELEMENT_SET_NO = 999
REV_AT_EPOCH   = 436
BSTAR          = -.38844E-1
MEAN_MOTION_DOT = -.2041151E-1
MEAN_MOTION_DDOT = 0

CCSDS_OMM_VERS = 2.0
CREATION_DATE  = 
ORIGINATOR     = 

OBJECT_NAME    = STARLINK-35944
OBJECT_ID      = 2025-286D
CENTER_NAME    = EARTH
REF_FRAME      = TEME
TIME_SYSTEM    = UTC
MEAN_ELEMENT_THEORY = SGP/SGP4

EPOCH          = 2025-12-27T12:00:02.000160
MEAN_MOTION    = 15.50948607
ECCENTRICITY   = .0001216
INCLINATION    = 53.1593
RA_OF_ASC_NODE = 337.1818
ARG_OF_PERICENTER = 65.7424
MEAN_ANOMALY   = 23.8217

EPHEMERIS_TYPE = 0
CLASSIFICATION_TYPE = U
NORAD_CAT_ID   = 66928
ELEMENT_SET_NO = 999
REV_AT_EPOCH   = 436
BSTAR          = -.38874E-1
MEAN_MOTION_DOT = -.2042703E-1
MEAN_MOTION_DDOT = 0

